CCSDS_OMM_VERS = 2.0
CREATION_DATE  = 
ORIGINATOR     = 

OBJECT_NAME    = STARLINK-35882
OBJECT_ID      = 2025-298P
CENTER_NAME    = EARTH
REF_FRAME      = TEME
TIME_SYSTEM    = UTC
MEAN_ELEMENT_THEORY = SGP/SGP4

EPOCH          = 2025-12-31T14:00:01.999872
MEAN_MOTION    = 15.56915489
ECCENTRICITY   = .00038768
INCLINATION    = 69.9994
RA_OF_ASC_NODE = 196.6018
ARG_OF_PERICENTER = 272.6018
MEAN_ANOMALY   = 165.0928

EPHEMERIS_TYPE = 0
CLASSIFICATION_TYPE = U
NORAD_CAT_ID   = 67088
ELEMENT_SET_NO = 999
REV_AT_EPOCH   = 400
BSTAR          = -.26267177E-1
MEAN_MOTION_DOT = -.1700789E-1
MEAN_MOTION_DDOT = 0

CCSDS_OMM_VERS = 2.0
CREATION_DATE  = 
ORIGINATOR     = 

OBJECT_NAME    = STARLINK-35763
OBJECT_ID      = 2025-298Q
CENTER_NAME    = EARTH
REF_FRAME      = TEME
TIME_SYSTEM    = UTC
MEAN_ELEMENT_THEORY = SGP/SGP4

EPOCH          = 2025-12-31T14:00:01.999872
MEAN_MOTION    = 15.56906610
ECCENTRICITY   = .0003821
INCLINATION    = 69.9996
RA_OF_ASC_NODE = 196.5988
ARG_OF_PERICENTER = 273.2475
MEAN_ANOMALY   = 166.4013

EPHEMERIS_TYPE = 0
CLASSIFICATION_TYPE = U
NORAD_CAT_ID   = 67089
ELEMENT_SET_NO = 999
REV_AT_EPOCH   = 400
BSTAR          = -.26267748E-1
MEAN_MOTION_DOT = -.1700275E-1
MEAN_MOTION_DDOT = 0

CCSDS_OMM_VERS = 2.0
CREATION_DATE  = 
ORIGINATOR     = 

OBJECT_NAME    = STARLINK-36060
OBJECT_ID      = 2025-298R
CENTER_NAME    = EARTH
REF_FRAME      = TEME
TIME_SYSTEM    = UTC
MEAN_ELEMENT_THEORY = SGP/SGP4

EPOCH          = 2025-12-31T14:00:01.999872
MEAN_MOTION    = 15.56911262
ECCENTRICITY   = .00039086
INCLINATION    = 69.9993
RA_OF_ASC_NODE = 196.5964
ARG_OF_PERICENTER = 272.8134
MEAN_ANOMALY   = 168.7430

EPHEMERIS_TYPE = 0
CLASSIFICATION_TYPE = U
NORAD_CAT_ID   = 67090
ELEMENT_SET_NO = 999
REV_AT_EPOCH   = 394
BSTAR          = -.26371148E-1
MEAN_MOTION_DOT = -.1706609E-1
MEAN_MOTION_DDOT = 0

CCSDS_OMM_VERS = 2.0
CREATION_DATE  = 
ORIGINATOR     = 

OBJECT_NAME    = STARLINK-36097
OBJECT_ID      = 2025-298S
CENTER_NAME    = EARTH
REF_FRAME      = TEME
TIME_SYSTEM    = UTC
MEAN_ELEMENT_THEORY = SGP/SGP4

EPOCH          = 2025-12-31T14:00:01.999872
MEAN_MOTION    = 15.56907462
ECCENTRICITY   = .00037571
INCLINATION    = 69.9994
RA_OF_ASC_NODE = 196.5945
ARG_OF_PERICENTER = 273.8635
MEAN_ANOMALY   = 169.6389

EPHEMERIS_TYPE = 0
CLASSIFICATION_TYPE = U
NORAD_CAT_ID   = 67091
ELEMENT_SET_NO = 999
REV_AT_EPOCH   = 400
BSTAR          = -.26465583E-1
MEAN_MOTION_DOT = -.1711763E-1
MEAN_MOTION_DDOT = 0

CCSDS_OMM_VERS = 2.0
CREATION_DATE  = 
ORIGINATOR     = 

OBJECT_NAME    = STARLINK-35792
OBJECT_ID      = 2025-298T
CENTER_NAME    = EARTH
REF_FRAME      = TEME
TIME_SYSTEM    = UTC
MEAN_ELEMENT_THEORY = SGP/SGP4

EPOCH          = 2025-12-31T14:00:01.999872
MEAN_MOTION    = 15.56910156
ECCENTRICITY   = .0003795
INCLINATION    = 69.9995
RA_OF_ASC_NODE = 196.5921
ARG_OF_PERICENTER = 272.4754
MEAN_ANOMALY   = 172.9371

EPHEMERIS_TYPE = 0
CLASSIFICATION_TYPE = U
NORAD_CAT_ID   = 67092
ELEMENT_SET_NO = 999
REV_AT_EPOCH   = 394
BSTAR          = -.26511019E-1
MEAN_MOTION_DOT = -.171458E-1
MEAN_MOTION_DDOT = 0

CCSDS_OMM_VERS = 2.0
CREATION_DATE  = 
ORIGINATOR     = 

OBJECT_NAME    = STARLINK-35784
OBJECT_ID      = 2025-298U
CENTER_NAME    = EARTH
REF_FRAME      = TEME
TIME_SYSTEM    = UTC
MEAN_ELEMENT_THEORY = SGP/SGP4

EPOCH          = 2025-12-31T14:00:01.999872
MEAN_MOTION    = 15.56907276
ECCENTRICITY   = .00036725
INCLINATION    = 69.9992
RA_OF_ASC_NODE = 196.5897
ARG_OF_PERICENTER = 273.1238
MEAN_ANOMALY   = 174.2152

EPHEMERIS_TYPE = 0
CLASSIFICATION_TYPE = U
NORAD_CAT_ID   = 67093
ELEMENT_SET_NO = 999
REV_AT_EPOCH   = 400
BSTAR          = -.26518437E-1
MEAN_MOTION_DOT = -.1714759E-1
MEAN_MOTION_DDOT = 0

CCSDS_OMM_VERS = 2.0
CREATION_DATE  = 
ORIGINATOR     = 

OBJECT_NAME    = STARLINK-36202
OBJECT_ID      = 2025-298V
CENTER_NAME    = EARTH
REF_FRAME      = TEME
TIME_SYSTEM    = UTC
MEAN_ELEMENT_THEORY = SGP/SGP4

EPOCH          = 2025-12-31T14:00:01.999872
MEAN_MOTION    = 15.56892936
ECCENTRICITY   = .00036032
INCLINATION    = 69.9994
RA_OF_ASC_NODE = 196.5871
ARG_OF_PERICENTER = 274.3195
MEAN_ANOMALY   = 174.9726

EPHEMERIS_TYPE = 0
CLASSIFICATION_TYPE = U
NORAD_CAT_ID   = 67094
ELEMENT_SET_NO = 999
REV_AT_EPOCH   = 400
BSTAR          = -.26308444E-1
MEAN_MOTION_DOT = -.1701706E-1
MEAN_MOTION_DDOT = 0

CCSDS_OMM_VERS = 2.0
CREATION_DATE  = 
ORIGINATOR     = 

OBJECT_NAME    = STARLINK-36227
OBJECT_ID      = 2025-298W
CENTER_NAME    = EARTH
REF_FRAME      = TEME
TIME_SYSTEM    = UTC
MEAN_ELEMENT_THEORY = SGP/SGP4

EPOCH          = 2025-12-31T14:00:01.999872
MEAN_MOTION    = 15.56886907
ECCENTRICITY   = .00038082
INCLINATION    = 69.9993
RA_OF_ASC_NODE = 196.5841
ARG_OF_PERICENTER = 270.4372
MEAN_ANOMALY   = 180.8037

EPHEMERIS_TYPE = 0
CLASSIFICATION_TYPE = U
NORAD_CAT_ID   = 67095
ELEMENT_SET_NO = 999
REV_AT_EPOCH   = 394
BSTAR          = -.26473288E-1
MEAN_MOTION_DOT = -.1711064E-1
MEAN_MOTION_DDOT = 0

CCSDS_OMM_VERS = 2.0
CREATION_DATE  = 
ORIGINATOR     = 

OBJECT_NAME    = STARLINK-36228
OBJECT_ID      = 2025-298X
CENTER_NAME    = EARTH
REF_FRAME      = TEME
TIME_SYSTEM    = UTC
MEAN_ELEMENT_THEORY = SGP/SGP4

EPOCH          = 2025-12-31T14:00:01.999872
MEAN_MOTION    = 15.56892927
ECCENTRICITY   = .00037772
INCLINATION    = 69.9998
RA_OF_ASC_NODE = 196.5809
ARG_OF_PERICENTER = 272.6890
MEAN_ANOMALY   = 180.4414

EPHEMERIS_TYPE = 0
CLASSIFICATION_TYPE = U
NORAD_CAT_ID   = 67096
ELEMENT_SET_NO = 999
REV_AT_EPOCH   = 394
BSTAR          = -.263349E-1
MEAN_MOTION_DOT = -.1703361E-1
MEAN_MOTION_DDOT = 0

CCSDS_OMM_VERS = 2.0
CREATION_DATE  = 
ORIGINATOR     = 

OBJECT_NAME    = STARLINK-36222
OBJECT_ID      = 2025-298Y
CENTER_NAME    = EARTH
REF_FRAME      = TEME
TIME_SYSTEM    = UTC
MEAN_ELEMENT_THEORY = SGP/SGP4

EPOCH          = 2025-12-31T14:00:01.999872
MEAN_MOTION    = 15.56891347
ECCENTRICITY   = .00037733
INCLINATION    = 69.9992
RA_OF_ASC_NODE = 196.5799
ARG_OF_PERICENTER = 273.4944
MEAN_ANOMALY   = 181.5634

EPHEMERIS_TYPE = 0
CLASSIFICATION_TYPE = U
NORAD_CAT_ID   = 67097
ELEMENT_SET_NO = 999
REV_AT_EPOCH   = 394
BSTAR          = -.26370116E-1
MEAN_MOTION_DOT = -.1705312E-1
MEAN_MOTION_DDOT = 0

CCSDS_OMM_VERS = 2.0
CREATION_DATE  = 
ORIGINATOR     = 

OBJECT_NAME    = STARLINK-36205
OBJECT_ID      = 2025-298Z
CENTER_NAME    = EARTH
REF_FRAME      = TEME
TIME_SYSTEM    = UTC
MEAN_ELEMENT_THEORY = SGP/SGP4

EPOCH          = 2025-12-31T14:00:01.999872
MEAN_MOTION    = 15.56881558
ECCENTRICITY   = .00036226
INCLINATION    = 69.9994
RA_OF_ASC_NODE = 196.5776
ARG_OF_PERICENTER = 273.9727
MEAN_ANOMALY   = 183.0402

EPHEMERIS_TYPE = 0
CLASSIFICATION_TYPE = U
NORAD_CAT_ID   = 67098
ELEMENT_SET_NO = 999
REV_AT_EPOCH   = 400
BSTAR          = -.26384651E-1
MEAN_MOTION_DOT = -.1705489E-1
MEAN_MOTION_DDOT = 0

CCSDS_OMM_VERS = 2.0
CREATION_DATE  = 
ORIGINATOR     = 

OBJECT_NAME    = STARLINK-36193
OBJECT_ID      = 2025-298AA
CENTER_NAME    = EARTH
REF_FRAME      = TEME
TIME_SYSTEM    = UTC
MEAN_ELEMENT_THEORY = SGP/SGP4

EPOCH          = 2025-12-31T14:00:01.999872
MEAN_MOTION    = 15.49376390
ECCENTRICITY   = .00035754
INCLINATION    = 70.0123
RA_OF_ASC_NODE = 196.7359
ARG_OF_PERICENTER = 269.9435
MEAN_ANOMALY   = 49.6288

EPHEMERIS_TYPE = 0
CLASSIFICATION_TYPE = U
NORAD_CAT_ID   = 67099
ELEMENT_SET_NO = 999
REV_AT_EPOCH   = 394
BSTAR          = -.37246444E-1
MEAN_MOTION_DOT = -.1817481E-1
MEAN_MOTION_DDOT = 0

