STARLINK-35882          
1 67088U 25298P   25365.58335648 -.01700789  00000+0 -26267-1 0  9995
2 67088  69.9994 196.6018 0003876 272.6018 165.0928 15.56915489  4006
STARLINK-35763          
1 67089U 25298Q   25365.58335648 -.01700275  00000+0 -26268-1 0  9997
2 67089  69.9996 196.5988 0003821 273.2475 166.4013 15.56906610  4004
STARLINK-36060          
1 67090U 25298R   25365.58335648 -.01706609  00000+0 -26371-1 0  9991
2 67090  69.9993 196.5964 0003908 272.8134 168.7430 15.56911262  3949
STARLINK-36097          
1 67091U 25298S   25365.58335648 -.01711763  00000+0 -26466-1 0  9994
2 67091  69.9994 196.5945 0003757 273.8635 169.6389 15.56907462  4007
STARLINK-35792          
1 67092U 25298T   25365.58335648 -.01714580  00000+0 -26511-1 0  9996
2 67092  69.9995 196.5921 0003795 272.4754 172.9371 15.56910156  3946
STARLINK-35784          
1 67093U 25298U   25365.58335648 -.01714759  00000+0 -26518-1 0  9992
2 67093  69.9992 196.5897 0003672 273.1238 174.2152 15.56907276  4004
STARLINK-36202          
1 67094U 25298V   25365.58335648 -.01701706  00000+0 -26308-1 0  9998
2 67094  69.9994 196.5871 0003603 274.3195 174.9726 15.56892936  4008
STARLINK-36227          
1 67095U 25298W   25365.58335648 -.01711064  00000+0 -26473-1 0  9990
2 67095  69.9993 196.5841 0003808 270.4372 180.8037 15.56886907  3940
STARLINK-36228          
1 67096U 25298X   25365.58335648 -.01703361  00000+0 -26335-1 0  9999
2 67096  69.9998 196.5809 0003777 272.6890 180.4414 15.56892927  3948
STARLINK-36222          
1 67097U 25298Y   25365.58335648 -.01705312  00000+0 -26370-1 0  9997
2 67097  69.9992 196.5799 0003773 273.4944 181.5634 15.56891347  3947
STARLINK-36205          
1 67098U 25298Z   25365.58335648 -.01705489  00000+0 -26385-1 0  9999
2 67098  69.9994 196.5776 0003622 273.9727 183.0402 15.56881558  4003
STARLINK-36193          
1 67099U 25298AA  25365.58335648 -.01817481  00000+0 -37246-1 0  9994
2 67099  70.0123 196.7359 0003575 269.9435  49.6288 15.49376390  3944
